{"type": "FeatureCollection", "features": [ {"type": "Feature", "properties": {"norad_id": 66615, "name": "STARLINK-35988", "group": "last-30-days", "lat": 25.11976379360364, "lon": 141.34921714851944, "alt_km": 440.4910824628387, "timestamp": "2025-12-26T20:30:44.698949+00:00", "meta": {"OBJECT_NAME": "STARLINK-35988", "OBJECT_ID": "2025-270AD", "EPOCH": "2025-12-25T16:20:27.897216", "MEAN_MOTION": 15.40700329, "ECCENTRICITY": 0.00016951, "INCLINATION": 43.0013, "RA_OF_ASC_NODE": 117.9088, "ARG_OF_PERICENTER": 260.634, "MEAN_ANOMALY": 99.4325, "EPHEMERIS_TYPE": 0, "CLASSIFICATION_TYPE": "U", "NORAD_CAT_ID": 66615, "ELEMENT_SET_NO": 999, "REV_AT_EPOCH": 618, "BSTAR": 0.0010609961, "MEAN_MOTION_DOT": 0.00044275, "MEAN_MOTION_DDOT": 0}, "tle": {"line1": "1 66615U 25270AD  25359.68087844  .00044275  00000+0  10610-2 0  9990", "line2": "2 66615  43.0013 117.9088 0001695 260.6340  99.4325 15.40700329  6181"}}, "geometry": {"type": "Point", "coordinates": [141.34921714851944, 25.11976379360364]}}, {"type": "Feature", "properties": {"norad_id": 66616, "name": "STARLINK-35391", "group": "last-30-days", "lat": 27.168505529393535, "lon": -102.517007297227, "alt_km": 439.69139125855054, "timestamp": "2025-12-26T20:30:44.698959+00:00", "meta": {"OBJECT_NAME": "STARLINK-35391", "OBJECT_ID": "2025-270AE", "EPOCH": "2025-12-26T09:01:32.767680", "MEAN_MOTION": 15.40703941, "ECCENTRICITY": 0.00012195, "INCLINATION": 42.9996, "RA_OF_ASC_NODE": 113.6621, "ARG_OF_PERICENTER": 233.5033, "MEAN_ANOMALY": 126.5712, "EPHEMERIS_TYPE": 0, "CLASSIFICATION_TYPE": "U", "NORAD_CAT_ID": 66616, "ELEMENT_SET_NO": 999, "REV_AT_EPOCH": 656, "BSTAR": 0.0013296463, "MEAN_MOTION_DOT": 0.00055652, "MEAN_MOTION_DDOT": 0}, "tle": {"line1": "1 66616U 25270AE  25360.37607370  .00055652  00000+0  13296-2 0  9995", "line2": "2 66616  42.9996 113.6621 0001219 233.5033 126.5712 15.40703941  6563"}}, "geometry": {"type": "Point", "coordinates": [-102.517007297227, 27.168505529393535]}}, {"type": "Feature", "properties": {"norad_id": 66617, "name": "STARLINK-35940", "group": "last-30-days", "lat": -29.20184697489686, "lon": 95.80175114197118, "alt_km": 451.3911465936171, "timestamp": "2025-12-26T20:30:44.698968+00:00", "meta": {"OBJECT_NAME": "STARLINK-35940", "OBJECT_ID": "2025-271A", "EPOCH": "2025-12-25T15:04:28.881120", "MEAN_MOTION": 15.39600088, "ECCENTRICITY": 0.0001206, "INCLINATION": 53.1613, "RA_OF_ASC_NODE": 126.3554, "ARG_OF_PERICENTER": 97.0516, "MEAN_ANOMALY": 263.0626, "EPHEMERIS_TYPE": 0, "CLASSIFICATION_TYPE": "U", "NORAD_CAT_ID": 66617, "ELEMENT_SET_NO": 999, "REV_AT_EPOCH": 619, "BSTAR": 0.0010268, "MEAN_MOTION_DOT": 0.00040863, "MEAN_MOTION_DDOT": 0}, "tle": {"line1": "1 66617U 25271A   25359.62811205  .00040863  00000+0  10268-2 0  9991", "line2": "2 66617  53.1613 126.3554 0001206  97.0516 263.0626 15.39600088  6191"}}, "geometry": {"type": "Point", "coordinates": [95.80175114197118, -29.20184697489686]}}, {"type": "Feature", "properties": {"norad_id": 66618, "name": "STARLINK-35970", "group": "last-30-days", "lat": -44.5203113669669, "lon": 72.40231999371728, "alt_km": 452.1713340129827, "timestamp": "2025-12-26T20:30:44.698978+00:00", "meta": {"OBJECT_NAME": "STARLINK-35970", "OBJECT_ID": "2025-271B", "EPOCH": "2025-12-26T14:00:04.000032", "MEAN_MOTION": 15.3962818, "ECCENTRICITY": 9.07e-05, "INCLINATION": 53.1603, "RA_OF_ASC_NODE": 121.1795, "ARG_OF_PERICENTER": 74.4082, "MEAN_ANOMALY": 159.8433, "EPHEMERIS_TYPE": 0, "CLASSIFICATION_TYPE": "U", "NORAD_CAT_ID": 66618, "ELEMENT_SET_NO": 999, "REV_AT_EPOCH": 604, "BSTAR": 0.00079850362, "MEAN_MOTION_DOT": 0.00031681, "MEAN_MOTION_DDOT": 0}, "tle": {"line1": "1 66618U 25271B   25360.58337963  .00031681  00000+0  79850-3 0  9994", "line2": "2 66618  53.1603 121.1795 0000907  74.4082 159.8433 15.39628180  6040"}}, "geometry": {"type": "Point", "coordinates": [72.40231999371728, -44.5203113669669]}}, {"type": "Feature", "properties": {"norad_id": 66619, "name": "STARLINK-35951", "group": "last-30-days", "lat": -11.34238238214496, "lon": -51.23780659858014, "alt_km": 449.8279390960688, "timestamp": "2025-12-26T20:30:44.698989+00:00", "meta": {"OBJECT_NAME": "STARLINK-35951", "OBJECT_ID": "2025-271C", "EPOCH": "2025-12-26T14:59:56.518080", "MEAN_MOTION": 15.39618514, "ECCENTRICITY": 0.00011586, "INCLINATION": 53.1609, "RA_OF_ASC_NODE": 121.196, "ARG_OF_PERICENTER": 70.9964, "MEAN_ANOMALY": 289.1167, "EPHEMERIS_TYPE": 0, "CLASSIFICATION_TYPE": "U", "NORAD_CAT_ID": 66619, "ELEMENT_SET_NO": 999, "REV_AT_EPOCH": 635, "BSTAR": 0.0014945451, "MEAN_MOTION_DOT": 0.00059848, "MEAN_MOTION_DDOT": 0}, "tle": {"line1": "1 66619U 25271C   25360.62495970  .00059848  00000+0  14945-2 0  9991", "line2": "2 66619  53.1609 121.1960 0001158  70.9964 289.1167 15.39618514  6355"}}, "geometry": {"type": "Point", "coordinates": [-51.23780659858014, -11.34238238214496]}}, {"type": "Feature", "properties": {"norad_id": 66620, "name": "STARLINK-35936", "group": "last-30-days", "lat": 29.00670372098355, "lon": -84.34539659312298, "alt_km": 443.2833736060875, "timestamp": "2025-12-26T20:30:44.698999+00:00", "meta": {"OBJECT_NAME": "STARLINK-35936", "OBJECT_ID": "2025-271D", "EPOCH": "2025-12-26T15:13:18.974496", "MEAN_MOTION": 15.39621309, "ECCENTRICITY": 0.00011115, "INCLINATION": 53.1589, "RA_OF_ASC_NODE": 121.2574, "ARG_OF_PERICENTER": 85.9433, "MEAN_ANOMALY": 274.1699, "EPHEMERIS_TYPE": 0, "CLASSIFICATION_TYPE": "U", "NORAD_CAT_ID": 66620, "ELEMENT_SET_NO": 999, "REV_AT_EPOCH": 635, "BSTAR": 0.00079849159, "MEAN_MOTION_DOT": 0.00031673, "MEAN_MOTION_DDOT": 0}, "tle": {"line1": "1 66620U 25271D   25360.63424739  .00031673  00000+0  79849-3 0  9990", "line2": "2 66620  53.1589 121.2574 0001111  85.9433 274.1699 15.39621309  6352"}}, "geometry": {"type": "Point", "coordinates": [-84.34539659312298, 29.00670372098355]}}, {"type": "Feature", "properties": {"norad_id": 66621, "name": "STARLINK-35847", "group": "last-30-days", "lat": -27.589074303982933, "lon": 96.78488928825914, "alt_km": 450.6402211297964, "timestamp": "2025-12-26T20:30:44.699008+00:00", "meta": {"OBJECT_NAME": "STARLINK-35847", "OBJECT_ID": "2025-271E", "EPOCH": "2025-12-26T14:00:04.000032", "MEAN_MOTION": 15.40496168, "ECCENTRICITY": 0.00017978, "INCLINATION": 53.1602, "RA_OF_ASC_NODE": 121.1285, "ARG_OF_PERICENTER": 63.8851, "MEAN_ANOMALY": 195.7628, "EPHEMERIS_TYPE": 0, "CLASSIFICATION_TYPE": "U", "NORAD_CAT_ID": 66621, "ELEMENT_SET_NO": 999, "REV_AT_EPOCH": 610, "BSTAR": -0.032800385, "MEAN_MOTION_DOT": -0.01225384, "MEAN_MOTION_DDOT": 0}, "tle": {"line1": "1 66621U 25271E   25360.58337963 -.01225384  00000+0 -32800-1 0  9998", "line2": "2 66621  53.1602 121.1285 0001797  63.8851 195.7628 15.40496168  6104"}}, "geometry": {"type": "Point", "coordinates": [96.78488928825914, -27.589074303982933]}}, {"type": "Feature", "properties": {"norad_id": 66622, "name": "STARLINK-35950", "group": "last-30-days", "lat": 46.702574573202874, "lon": 173.0854969127678, "alt_km": 439.88250974838684, "timestamp": "2025-12-26T20:30:44.699018+00:00", "meta": {"OBJECT_NAME": "STARLINK-35950", "OBJECT_ID": "2025-271F", "EPOCH": "2025-12-25T19:18:10.447776", "MEAN_MOTION": 15.39633449, "ECCENTRICITY": 0.00015196, "INCLINATION": 53.1597, "RA_OF_ASC_NODE": 125.319, "ARG_OF_PERICENTER": 88.4563, "MEAN_ANOMALY": 271.6616, "EPHEMERIS_TYPE": 0, "CLASSIFICATION_TYPE": "U", "NORAD_CAT_ID": 66622, "ELEMENT_SET_NO": 999, "REV_AT_EPOCH": 622, "BSTAR": 0.00054750033, "MEAN_MOTION_DOT": 0.00021572, "MEAN_MOTION_DDOT": 0}, "tle": {"line1": "1 66622U 25271F   25359.80428759  .00021572  00000+0  54750-3 0  9996", "line2": "2 66622  53.1597 125.3190 0001519  88.4563 271.6616 15.39633449  6221"}}, "geometry": {"type": "Point", "coordinates": [173.0854969127678, 46.702574573202874]}}, {"type": "Feature", "properties": {"norad_id": 66623, "name": "STARLINK-35920", "group": "last-30-days", "lat": 10.986958853021964, "lon": 128.84024421829346, "alt_km": 446.2524342248789, "timestamp": "2025-12-26T20:30:44.699027+00:00", "meta": {"OBJECT_NAME": "STARLINK-35920", "OBJECT_ID": "2025-271G", "EPOCH": "2025-12-26T14:13:16.250880", "MEAN_MOTION": 15.3965013, "ECCENTRICITY": 4.27e-05, "INCLINATION": 53.1606, "RA_OF_ASC_NODE": 121.7067, "ARG_OF_PERICENTER": 62.266, "MEAN_ANOMALY": 297.8388, "EPHEMERIS_TYPE": 0, "CLASSIFICATION_TYPE": "U", "NORAD_CAT_ID": 66623, "ELEMENT_SET_NO": 999, "REV_AT_EPOCH": 634, "BSTAR": 0.00099486041, "MEAN_MOTION_DOT": 0.00039641, "MEAN_MOTION_DDOT": 0}, "tle": {"line1": "1 66623U 25271G   25360.59254920  .00039641  00000+0  99486-3 0  9993", "line2": "2 66623  53.1606 121.7067 0000427  62.2660 297.8388 15.39650130  6346"}}, "geometry": {"type": "Point", "coordinates": [128.84024421829346, 10.986958853021964]}}, {"type": "Feature", "properties": {"norad_id": 66624, "name": "STARLINK-35927", "group": "last-30-days", "lat": -30.904181844506184, "lon": -33.27059610855008, "alt_km": 451.55813547928847, "timestamp": "2025-12-26T20:30:44.699038+00:00", "meta": {"OBJECT_NAME": "STARLINK-35927", "OBJECT_ID": "2025-271H", "EPOCH": "2025-12-26T14:00:04.000032", "MEAN_MOTION": 15.39604489, "ECCENTRICITY": 7.212e-05, "INCLINATION": 53.1597, "RA_OF_ASC_NODE": 121.343, "ARG_OF_PERICENTER": 73.5732, "MEAN_ANOMALY": 81.699, "EPHEMERIS_TYPE": 0, "CLASSIFICATION_TYPE": "U", "NORAD_CAT_ID": 66624, "ELEMENT_SET_NO": 999, "REV_AT_EPOCH": 602, "BSTAR": 0.00032490766, "MEAN_MOTION_DOT": 0.00012612, "MEAN_MOTION_DDOT": 0}, "tle": {"line1": "1 66624U 25271H   25360.58337963  .00012612  00000+0  32491-3 0  9994", "line2": "2 66624  53.1597 121.3430 0000721  73.5732  81.6990 15.39604489  6027"}}, "geometry": {"type": "Point", "coordinates": [-33.27059610855008, -30.904181844506184]}}]}